0 DMSP 5D-2 F12 DEB
1 43346U 94057J   18196.04049786  .00024723  00000-0  64337-2 0  9991
2 43346  99.1410 230.0432 0016212 186.8262 173.2710 14.49475196 89654
0 RESURS O1 DEB
1 43347U 94074AK  18196.60070816 +.00001633 +00000-0 +19586-3 0  9993
2 43347 098.0868 247.8688 0002846 217.0469 143.0549 14.85453391110432
0 ARIANE 40+ DEB
1 43351U 95021J   18196.33305570 +.00002007 +00000-0 +57841-3 0  9991
2 43351 098.7524 216.3947 0005594 170.7020 189.4275 14.45828976154779
0 ARIANE 40+ DEB
1 43351U 95021J   18195.77942008 +.00002047 +00000-0 +58979-3 0  9998
2 43351 098.7523 215.8234 0005509 172.1060 188.0219 14.45826732154699
0 ARIANE 40+ DEB
1 43351U 95021J   18195.98703348  .00002051  00000-0  59090-3 0  9993
2 43351  98.7523 216.0376 0005538 171.5767 188.5517 14.45827686154727
0 SL-16 DEB
1 43353U 95058N   18196.53544620 -.00001227 +00000-0 -51252-3 0  9991
2 43353 071.0132 249.3218 0022441 031.5654 328.6814 14.23929351240850
0 SL-16 DEB
1 43353U 95058N   18196.53544620 -.00001227  00000-0 -51252-3 0  9991
2 43353  71.0132 249.3218 0022441  31.5654 328.6814 14.23929351240850
0 SL-16 DEB
1 43354U 96051P   18195.40779309 -.00000150 +00000-0 -53248-4 0  9997
2 43354 071.1875 192.9578 0097927 261.2626 097.7396 14.12846554239421
0 SL-16 DEB
1 43354U 96051P   18196.39900298 -.00000146  00000-0 -51099-4 0  9996
2 43354  71.1875 190.9031 0097878 259.7425  99.2649 14.12846372859768
0 GLOBALSTAR M004 DEB
1 43356U 98008G   18196.90462007  .00000292  00000-0  18955-2 0  9992
2 43356  51.9089 145.7752 0032816 104.7704 255.6806 12.74144108115943
0 GLOBALSTAR M004 DEB
1 43357U 98008H   18196.53743870 +.00000680 +00000-0 +46910-2 0  9995
2 43357 051.9611 241.6881 0051171 189.8906 170.0954 12.56479705114157
0 FENGYUN 1C DEB
1 43358U 99025EYP 18196.28465570  .00000077  00000-0  14470-3 0  9993
2 43358  98.6910 316.9994 0385623 152.6961 209.5026 13.34109146175780
0 FENGYUN 1C DEB
1 43359U 99025EYQ 18196.47739390 +.00000357 +00000-0 +23871-3 0  9995
2 43359 099.1892 199.1298 0096153 035.5418 325.2104 14.05354548095913
0 NOAA 16 DEB
1 43368U 00055UC  18196.28580804  .00008974  00000-0  33376-2 0  9996
2 43368  99.1339 306.9136 0019212  30.8791 329.3517 14.32210531122323
0 NOAA 16 DEB
1 43368U 00055UC  18195.51732915  .00010315  00000-0  38324-2 0  9993
2 43368  99.1220 306.1044 0020194  35.8399 324.4133 14.32202717122217
0 COSMOS 2392 DEB
1 43372U 02037BW  18196.52131756 -.00002125  00000-0 -19965-1 0  9999
2 43372  63.4517  28.9008 0262883 333.7748  25.0094 12.11488220 62151
0 SL-23 DEB
1 43381U 08020C   18195.36890862 -.00000035 +00000-0 +00000-0 0  9994
2 43381 056.7535 104.2157 0413516 198.8361 159.6178 01.67812282053482
0 SL-23 DEB
1 43381U 08020C   18195.96530183 -.00000036  00000-0  00000+0 0  9997
2 43381  56.7506 104.1959 0413113 196.7968 161.8186  1.67812194 53499
0 ARIANE 5 DEB
1 43382U 08030E   18196.40673840 -.00000087  00000-0  45233-4 0  9995
2 43382   1.7249 255.6923 7111465 140.4458 304.1957  2.45219879 41324
0 ARIANE 5 DEB
1 43382U 08030E   18196.40674125 -.00000086 +00000-0 +46219-4 0  9996
2 43382 001.7250 255.6962 7111469 140.4420 304.1984 02.45219870041323
0 ARIANE 5 DEB
1 43384U 08030G   18196.24562494  .00000020  00000-0  29635-3 0  9994
2 43384   2.2340  15.3027 7215995 251.5249  23.6307  2.29173678 79663
0 WORLDVIEW 2 DEB
1 43386U 09055M   18195.88509062 +.00001886 +00000-0 +51227-3 0  9998
2 43386 098.4522 279.3294 0027339 274.4154 085.3915 14.48501958104879
0 WORLDVIEW 2 DEB
1 43387U 09055N   18196.24619059  .00012052  00000-0  26428-2 0  9999
2 43387  98.7019 298.8327 0040295 166.6629 193.5643 14.57270791 94126
0 WORLDVIEW 2 DEB
1 43387U 09055N   18196.72681722  .00017975  00000-0  39302-2 0  9992
2 43387  98.7052 299.3371 0040637 165.9970 194.2364 14.57291441 94199
0 WORLDVIEW 2 DEB
1 43390U 09055R   18196.44954429 +.00007670 +00000-0 +18370-2 0  9995
2 43390 098.5713 286.0088 0005367 324.1536 035.9299 14.53791544082865
0 WORLDVIEW 2 DEB
1 43390U 09055R   18195.69245678 +.00008773 +00000-0 +20995-2 0  9991
2 43390 098.5740 285.2403 0005741 326.4555 033.6277 14.53784413082755
0 SERVIS 2 DEB
1 43393U 10023C   18196.02420548 -.00000020  00000-0  57255-4 0  9999
2 43393 100.3899  45.9562 0006053 264.2266  95.8162 13.26778195224779
0 H-2A DEB
1 43397U 12025Q   18195.92850465 +.00062638 +00000-0 +26839-2 0  9994
2 43397 098.3622 233.7584 0013599 357.1520 002.9634 15.22443933086655
0 H-2A DEB
1 43397U 12025Q   18196.32285499 +.00051616 +00000-0 +22139-2 0  9991
2 43397 098.3637 234.1993 0013523 356.3094 003.8037 15.22470298086712
0 H-2A DEB
1 43397U 12025Q   18196.65147661  .00038976  00000-0  16755-2 0  9996
2 43397  98.3632 234.5643 0013490 355.3049   4.8056 15.22469758 86761
0 H-2A DEB
1 43398U 12025R   18195.91954606 +.00127291 +00000-0 +39154-2 0  9997
2 43398 098.3288 235.8125 0009350 192.2413 167.8601 15.33107947094778
0 H-2A DEB
1 43398U 12025R   18196.05008114  .00124146  00000-0  38162-2 0  9991
2 43398  98.3288 235.9594 0009373 191.8426 168.2595 15.33141882 94798
0 H-2A DEB
1 43399U 12025S   18195.86607762 +.00009041 +00000-0 +98338-3 0  9992
2 43399 098.3125 216.3805 0012888 065.4078 294.8478 14.88246040059878
0 H-2A DEB
1 43399U 12025S   18196.13501439  .00008540  00000-0  92916-3 0  9996
2 43399  98.3128 216.6623 0013048  64.7377 295.5189 14.88248826 59911
0 CZ-2D DEB
1 43402U 12052B   18196.56095481 +.00000205 +00000-0 +77224-4 0  9999
2 43402 098.0738 116.0482 0245686 040.8784 321.0538 14.25169083241462
0 CZ-2D DEB
1 43403U 12052C   18195.98914256 +.00000241 +00000-0 +86498-4 0  9998
2 43403 098.0187 113.4837 0226166 352.5774 007.2080 14.28733907241932
0 GOKTURK 2 DEB
1 43405U 12073C   18196.26945783 +.00003084 +00000-0 +15858-3 0  9993
2 43405 098.2130 214.9687 0070518 015.3815 344.9536 15.15196096254583
0 GOKTURK 2 DEB
1 43405U 12073C   18196.86380476  .00003537  00000-0  18119-3 0  9997
2 43405  98.2157 215.6144 0070456  13.4084 346.8997 15.15200863254676
0 CZ-2D DEB
1 43406U 12073D   18196.70048396  .00000704  00000-0  87951-4 0  9997
2 43406  97.9588 105.8829 0103203 197.9319 161.8243 14.82006973250536
0 CZ-4C DEB
1 43408U 13052C   18196.34724634 +.00000171 +00000-0 +16824-3 0  9991
2 43408 098.7581 153.8605 0223180 150.2191 211.1885 13.79540671233784
0 CZ-4C DEB
1 43408U 13052C   18195.83954849 +.00000049 +00000-0 +70440-4 0  9996
2 43408 098.7580 153.3897 0222745 151.6753 209.6724 13.79538790233712
0 CZ-4C DEB
1 43409U 13052D   18196.05834215 +.00000246 +00000-0 +23866-3 0  9994
2 43409 098.7534 139.2949 0240315 171.3944 189.1443 13.75585471233137
0 CZ-4C DEB
1 43410U 13052E   18195.70090451 +.00000111 +00000-0 +12911-3 0  9993
2 43410 098.8299 151.9186 0246518 201.7765 157.2761 13.74157481232786
0 CZ-4C DEB
1 43411U 13052F   18196.49345208 +.00000020 +00000-0 +26733-4 0  9991
2 43411 098.6686 284.3369 0004589 194.7045 165.4003 14.26440537241797
0 CZ-2D DEB
1 43413U 13068B   18196.27635463  .00000274  00000-0  93308-4 0  9994
2 43413  97.9720 129.4007 0130388 144.6632 216.3287 14.38669206234972
0 BREEZE-M DEB
1 43414U 14007D   18195.94971535 -.00000132 +00000-0 +00000-0 0  9992
2 43414 014.2783 319.5971 4710035 300.2057 021.5306 01.89406257025922
0 DMSP 5D-3 F19 DEB
1 43415U 14015E   18195.64130914 -.00001746 +00000-0 -83544-3 0  9997
2 43415 098.7704 215.4153 0009066 131.0783 229.1177 14.17744988216550
0 DMSP 5D-3 F19 DEB
1 43415U 14015E   18196.48819295 -.00001302  00000-0 -61713-3 0  9998
2 43415  98.7700 216.2505 0009375 129.6339 230.5665 14.17746623216678
0 DMSP 5D-3 F19 DEB
1 43416U 14015F   18196.04179236 +.00000395 +00000-0 +21814-3 0  9992
2 43416 098.7730 216.0587 0010202 143.1827 217.0050 14.17043336216549
0 DMSP 5D-3 F19 DEB
1 43416U 14015F   18195.90057400 +.00000409 +00000-0 +22490-3 0  9991
2 43416 098.7730 215.9194 0010199 143.5710 216.6161 14.17043303216521
0 GAOFEN 8 DEB
1 43423U 15030D   18196.59395563 +.00001172 +00000-0 +35059-4 0  9992
2 43423 097.4211 327.6116 0006470 197.4293 162.6730 15.36630752159783
0 GAOFEN 8 DEB
1 43423U 15030D   18196.59395563  .00001172  00000-0  35059-4 0  9992
2 43423  97.4211 327.6116 0006470 197.4293 162.6730 15.36630752159783
0 CZ-4C DEB
1 43424U 15040C   18196.08720267 -.00000064 +00000-0 -59060-4 0  9990
2 43424 100.3415 242.7683 0152215 047.6820 313.7073 13.09931547133236
0 CZ-4C DEB
1 43425U 15040D   18196.03211614 +.00000039 +00000-0 +19252-3 0  9995
2 43425 100.4188 270.7035 0142438 026.3351 334.4917 13.21868749138088
0 CZ-2D DEB
1 43426U 15078B   18196.78342844  .00001323  00000-0  13702-3 0  9990
2 43426  97.3974 140.0945 0206302 343.9865  15.4887 14.77265244136357
0 NUSAT 1 DEB
1 43427U 16033E   18196.55224203  .00001321  00000-0  13514-3 0  9995
2 43427  97.4828 227.5992 0213188 162.7013 198.1611 14.76752297103695
0 NUSAT 1 DEB
1 43427U 16033E   18196.55224203 +.00001321 +00000-0 +13514-3 0  9995
2 43427 097.4828 227.5992 0213188 162.7013 198.1611 14.76752297103695
0 CZ-4B DEB
1 43430U 17034F   18196.13356080 +.00000131 +00000-0 +50762-4 0  9999
2 43430 043.0134 115.6309 0243840 225.8826 132.1705 14.51665557052652
0 CZ-4B DEB
1 43431U 17034G   18196.08067157 +.00000160 +00000-0 +54240-4 0  9995
2 43431 043.1034 107.0822 0225853 238.4192 119.4407 14.55409770055161
0 CZ-4B DEB
1 43431U 17034G   18195.80614318 +.00000163 +00000-0 +54749-4 0  9998
2 43431 043.1031 108.4660 0225831 236.8441 121.0537 14.55409545055127
0 COSMOS 2526
1 43432U 18037A   18196.63243848 -.00000363  00000-0  00000+0 0  9990
2 43432   0.0279 208.1562 0000781 340.6074 100.4021  1.00268648   980
0 BREEZE-M R/B
1 43433U 18037B   18195.44791970 -.00000149 +00000-0 +00000-0 0  9996
2 43433 000.1276 109.3589 0664308 311.3918 305.7287 00.90514801001004
